CCSDS_OMM_VERS = 2.0
CREATION_DATE  = 
ORIGINATOR     = 

OBJECT_NAME    = DRAGONFLY
OBJECT_ID      = 1998-067XH
CENTER_NAME    = EARTH
REF_FRAME      = TEME
TIME_SYSTEM    = UTC
MEAN_ELEMENT_THEORY = SGP/SGP4

EPOCH          = 2026-01-21T23:40:05.653920
MEAN_MOTION    = 15.97986460
ECCENTRICITY   = .0007509
INCLINATION    = 51.6154
RA_OF_ASC_NODE = 286.6749
ARG_OF_PERICENTER = 164.5682
MEAN_ANOMALY   = 195.5557

EPHEMERIS_TYPE = 0
CLASSIFICATION_TYPE = U
NORAD_CAT_ID   = 65729
ELEMENT_SET_NO = 999
REV_AT_EPOCH   = 1953
BSTAR          = .16554817E-2
MEAN_MOTION_DOT = .774953E-2
MEAN_MOTION_DDOT = .27968003E-3

CCSDS_OMM_VERS = 2.0
CREATION_DATE  = 
ORIGINATOR     = 

OBJECT_NAME    = 1998-067XK
OBJECT_ID      = 1998-067XK
CENTER_NAME    = EARTH
REF_FRAME      = TEME
TIME_SYSTEM    = UTC
MEAN_ELEMENT_THEORY = SGP/SGP4

EPOCH          = 2026-01-21T03:02:56.694912
MEAN_MOTION    = 15.75989624
ECCENTRICITY   = .00044627
INCLINATION    = 51.6259
RA_OF_ASC_NODE = 296.0386
ARG_OF_PERICENTER = 120.4729
MEAN_ANOMALY   = 239.6712

EPHEMERIS_TYPE = 0
CLASSIFICATION_TYPE = U
NORAD_CAT_ID   = 65731
ELEMENT_SET_NO = 999
REV_AT_EPOCH   = 1933
BSTAR          = .19203543E-2
MEAN_MOTION_DOT = .315784E-2
MEAN_MOTION_DDOT = 0

CCSDS_OMM_VERS = 2.0
CREATION_DATE  = 
ORIGINATOR     = 

OBJECT_NAME    = RSP-03
OBJECT_ID      = 1998-067XL
CENTER_NAME    = EARTH
REF_FRAME      = TEME
TIME_SYSTEM    = UTC
MEAN_ELEMENT_THEORY = SGP/SGP4

EPOCH          = 2026-01-21T20:01:40.725696
MEAN_MOTION    = 15.84268982
ECCENTRICITY   = .00055524
INCLINATION    = 51.6224
RA_OF_ASC_NODE = 290.2233
ARG_OF_PERICENTER = 138.8828
MEAN_ANOMALY   = 221.2595

EPHEMERIS_TYPE = 0
CLASSIFICATION_TYPE = U
NORAD_CAT_ID   = 65732
ELEMENT_SET_NO = 999
REV_AT_EPOCH   = 1948
BSTAR          = .15903162E-2
MEAN_MOTION_DOT = .384955E-2
MEAN_MOTION_DDOT = 0

CCSDS_OMM_VERS = 2.0
CREATION_DATE  = 
ORIGINATOR     = 

OBJECT_NAME    = GHS-01
OBJECT_ID      = 1998-067XM
CENTER_NAME    = EARTH
REF_FRAME      = TEME
TIME_SYSTEM    = UTC
MEAN_ELEMENT_THEORY = SGP/SGP4

EPOCH          = 2026-01-20T04:28:50.636352
MEAN_MOTION    = 16.21603071
ECCENTRICITY   = .00067392
INCLINATION    = 51.6157
RA_OF_ASC_NODE = 293.3797
ARG_OF_PERICENTER = 190.3013
MEAN_ANOMALY   = 169.7869

EPHEMERIS_TYPE = 0
CLASSIFICATION_TYPE = U
NORAD_CAT_ID   = 65733
ELEMENT_SET_NO = 999
REV_AT_EPOCH   = 1929
BSTAR          = .21629537E-2
MEAN_MOTION_DOT = .4911934E-1
MEAN_MOTION_DDOT = .11854743E-4

CCSDS_OMM_VERS = 2.0
CREATION_DATE  = 
ORIGINATOR     = 

OBJECT_NAME    = YOTSUBA-KULOVER
OBJECT_ID      = 1998-067XN
CENTER_NAME    = EARTH
REF_FRAME      = TEME
TIME_SYSTEM    = UTC
MEAN_ELEMENT_THEORY = SGP/SGP4

EPOCH          = 2026-01-20T00:35:13.186752
MEAN_MOTION    = 15.65739151
ECCENTRICITY   = .00043261
INCLINATION    = 51.6285
RA_OF_ASC_NODE = 306.6936
ARG_OF_PERICENTER = 132.7917
MEAN_ANOMALY   = 227.3443

EPHEMERIS_TYPE = 0
CLASSIFICATION_TYPE = U
NORAD_CAT_ID   = 65941
ELEMENT_SET_NO = 999
REV_AT_EPOCH   = 1584
BSTAR          = .12199895E-2
MEAN_MOTION_DOT = .127352E-2
MEAN_MOTION_DDOT = 0

CCSDS_OMM_VERS = 2.0
CREATION_DATE  = 
ORIGINATOR     = 

OBJECT_NAME    = BOTAN
OBJECT_ID      = 1998-067XP
CENTER_NAME    = EARTH
REF_FRAME      = TEME
TIME_SYSTEM    = UTC
MEAN_ELEMENT_THEORY = SGP/SGP4

EPOCH          = 2026-01-21T20:52:03.097056
MEAN_MOTION    = 15.74680416
ECCENTRICITY   = .00066895
INCLINATION    = 51.6191
RA_OF_ASC_NODE = 294.9954
ARG_OF_PERICENTER = 128.0222
MEAN_ANOMALY   = 232.1381

EPHEMERIS_TYPE = 0
CLASSIFICATION_TYPE = U
NORAD_CAT_ID   = 65942
ELEMENT_SET_NO = 999
REV_AT_EPOCH   = 1616
BSTAR          = .15019672E-2
MEAN_MOTION_DOT = .230928E-2
MEAN_MOTION_DDOT = 0

CCSDS_OMM_VERS = 2.0
CREATION_DATE  = 
ORIGINATOR     = 

OBJECT_NAME    = E-KAGAKU-1
OBJECT_ID      = 1998-067XQ
CENTER_NAME    = EARTH
REF_FRAME      = TEME
TIME_SYSTEM    = UTC
MEAN_ELEMENT_THEORY = SGP/SGP4

EPOCH          = 2026-01-21T20:59:52.803744
MEAN_MOTION    = 15.66399445
ECCENTRICITY   = .00029887
INCLINATION    = 51.6287
RA_OF_ASC_NODE = 297.3080
ARG_OF_PERICENTER = 147.0300
MEAN_ANOMALY   = 213.0882

EPHEMERIS_TYPE = 0
CLASSIFICATION_TYPE = U
NORAD_CAT_ID   = 65943
ELEMENT_SET_NO = 999
REV_AT_EPOCH   = 1613
BSTAR          = .1163576E-2
MEAN_MOTION_DOT = .124645E-2
MEAN_MOTION_DDOT = 0

CCSDS_OMM_VERS = 2.0
CREATION_DATE  = 
ORIGINATOR     = 

OBJECT_NAME    = HRC MONOBLOCK CAMERA
OBJECT_ID      = 1998-067XR
CENTER_NAME    = EARTH
REF_FRAME      = TEME
TIME_SYSTEM    = UTC
MEAN_ELEMENT_THEORY = SGP/SGP4

EPOCH          = 2026-01-21T23:50:07.389312
MEAN_MOTION    = 15.57379554
ECCENTRICITY   = .0000824
INCLINATION    = 51.6298
RA_OF_ASC_NODE = 300.3420
ARG_OF_PERICENTER = 27.5149
MEAN_ANOMALY   = 332.5886

EPHEMERIS_TYPE = 0
CLASSIFICATION_TYPE = U
NORAD_CAT_ID   = 66052
ELEMENT_SET_NO = 999
REV_AT_EPOCH   = 1510
BSTAR          = .73207212E-3
MEAN_MOTION_DOT = .54522E-3
MEAN_MOTION_DDOT = 0

CCSDS_OMM_VERS = 2.0
CREATION_DATE  = 
ORIGINATOR     = 

OBJECT_NAME    = HTV-X1
OBJECT_ID      = 2025-241A
CENTER_NAME    = EARTH
REF_FRAME      = TEME
TIME_SYSTEM    = UTC
MEAN_ELEMENT_THEORY = SGP/SGP4

EPOCH          = 2026-01-22T04:11:09.201120
MEAN_MOTION    = 15.49548134
ECCENTRICITY   = .00078093
INCLINATION    = 51.6328
RA_OF_ASC_NODE = 302.3013
ARG_OF_PERICENTER = 45.1395
MEAN_ANOMALY   = 315.0227

EPHEMERIS_TYPE = 0
CLASSIFICATION_TYPE = U
NORAD_CAT_ID   = 66174
ELEMENT_SET_NO = 999
REV_AT_EPOCH   = 51
BSTAR          = .2956228E-3
MEAN_MOTION_DOT = .16198E-3
MEAN_MOTION_DDOT = 0

CCSDS_OMM_VERS = 2.0
CREATION_DATE  = 
ORIGINATOR     = 

OBJECT_NAME    = SZ-21 MODULE
OBJECT_ID      = 2025-246C
CENTER_NAME    = EARTH
REF_FRAME      = TEME
TIME_SYSTEM    = UTC
MEAN_ELEMENT_THEORY = SGP/SGP4

EPOCH          = 2026-01-21T14:02:19.429440
MEAN_MOTION    = 15.64987576
ECCENTRICITY   = .00029419
INCLINATION    = 41.4763
RA_OF_ASC_NODE = 132.5466
ARG_OF_PERICENTER = 216.5552
MEAN_ANOMALY   = 143.5088

EPHEMERIS_TYPE = 0
CLASSIFICATION_TYPE = U
NORAD_CAT_ID   = 66515
ELEMENT_SET_NO = 999
REV_AT_EPOCH   = 1068
BSTAR          = .496567E-3
MEAN_MOTION_DOT = .50158E-3
MEAN_MOTION_DDOT = 0

CCSDS_OMM_VERS = 2.0
CREATION_DATE  = 
ORIGINATOR     = 

OBJECT_NAME    = SHENZHOU-22
OBJECT_ID      = 2025-272A
CENTER_NAME    = EARTH
REF_FRAME      = TEME
TIME_SYSTEM    = UTC
MEAN_ELEMENT_THEORY = SGP/SGP4

EPOCH          = 2026-01-22T07:15:25.008192
MEAN_MOTION    = 15.60894095
ECCENTRICITY   = .00104838
INCLINATION    = 41.4671
RA_OF_ASC_NODE = 130.1396
ARG_OF_PERICENTER = 335.9522
MEAN_ANOMALY   = 24.0826

EPHEMERIS_TYPE = 0
CLASSIFICATION_TYPE = U
NORAD_CAT_ID   = 66645
ELEMENT_SET_NO = 999
REV_AT_EPOCH   = 26764
BSTAR          = .30041017E-3
MEAN_MOTION_DOT = .25665E-3
MEAN_MOTION_DDOT = 0

CCSDS_OMM_VERS = 2.0
CREATION_DATE  = 
ORIGINATOR     = 

OBJECT_NAME    = SOYUZ-MS 28
OBJECT_ID      = 2025-275A
CENTER_NAME    = EARTH
REF_FRAME      = TEME
TIME_SYSTEM    = UTC
MEAN_ELEMENT_THEORY = SGP/SGP4

EPOCH          = 2026-01-22T04:11:09.201120
MEAN_MOTION    = 15.49548134
ECCENTRICITY   = .00078093
INCLINATION    = 51.6328
RA_OF_ASC_NODE = 302.3013
ARG_OF_PERICENTER = 45.1395
MEAN_ANOMALY   = 315.0227

EPHEMERIS_TYPE = 0
CLASSIFICATION_TYPE = U
NORAD_CAT_ID   = 66664
ELEMENT_SET_NO = 999
REV_AT_EPOCH   = 128
BSTAR          = .2956228E-3
MEAN_MOTION_DOT = .16198E-3
MEAN_MOTION_DDOT = 0

