DRAGONFLY               
1 65729U 98067XH  26021.98617655  .00774953  27968-3  16555-2 0  9991
2 65729  51.6154 286.6749 0007509 164.5682 195.5557 15.97986460 19538
1998-067XK              
1 65731U 98067XK  26021.12704508  .00315784  00000+0  19204-2 0  9995
2 65731  51.6259 296.0386 0004462 120.4729 239.6712 15.75989624 19339
RSP-03                  
1 65732U 98067XL  26021.83449914  .00384955  00000+0  15903-2 0  9999
2 65732  51.6224 290.2233 0005552 138.8828 221.2595 15.84268982 19482
GHS-01                  
1 65733U 98067XM  26020.18669718  .04911934  11855-4  21630-2 0  9999
2 65733  51.6157 293.3797 0006739 190.3013 169.7869 16.21603071 19297
YOTSUBA-KULOVER         
1 65941U 98067XN  26020.02445818  .00127352  00000+0  12200-2 0  9993
2 65941  51.6285 306.6936 0004326 132.7917 227.3443 15.65739151 15848
BOTAN                   
1 65942U 98067XP  26021.86948029  .00230928  00000+0  15020-2 0  9996
2 65942  51.6191 294.9954 0006689 128.0222 232.1381 15.74680416 16165
E-KAGAKU-1              
1 65943U 98067XQ  26021.87491671  .00124645  00000+0  11636-2 0  9991
2 65943  51.6287 297.3080 0002988 147.0300 213.0882 15.66399445 16136
HRC MONOBLOCK CAMERA    
1 66052U 98067XR  26021.99314108  .00054522  00000+0  73207-3 0  9994
2 66052  51.6298 300.3420 0000824  27.5149 332.5886 15.57379554 15109
HTV-X1                  
1 66174U 25241A   26022.17441205  .00016198  00000+0  29562-3 0  9995
2 66174  51.6328 302.3013 0007809  45.1395 315.0227 15.49548134   514
SZ-21 MODULE            
1 66515U 25246C   26021.58494710  .00050158  00000+0  49657-3 0  9993
2 66515  41.4763 132.5466 0002941 216.5552 143.5088 15.64987576 10681
SHENZHOU-22             
1 66645U 25272A   26022.30237278  .00025665  00000+0  30041-3 0  9993
2 66645  41.4671 130.1396 0010483 335.9522  24.0826 15.60894095267644
SOYUZ-MS 28             
1 66664U 25275A   26022.17441205  .00016198  00000+0  29562-3 0  9996
2 66664  51.6328 302.3013 0007809  45.1395 315.0227 15.49548134  1283
